[{"hotel Name ":"Anne de Bretagne","hotel Price":"81.76","hotel adress":{"street":"Le Moulin de Malfourat","postalCode":"24240","city":"Monbazillac"},"Link for Reservation":["https://www.relaischateaux.com/us/france/annedebretagne-loire-atlantique-la-plaine-sur-mer"]},{"hotel Name ":"Assiette Champenoise","hotel Price":"209.19","hotel adress":{"street":"10 rue Hôtel-Dieu","postalCode":"21200","city":"Beaune"},"Link for Reservation":["https://www.relaischateaux.com/us/france/assiette-champenoise-champagne-ardenne-tinqueux"]},{"hotel Name ":"Auberge des Templiers","hotel Price":"104.88","hotel adress":{"street":"2 avenue de la Libération","postalCode":"71120","city":"Charolles"},"Link for Reservation":["https://www.relaischateaux.com/us/france/templiers-loiret-boismorand"]},{"hotel Name ":"Château Cordeillan-Bages","hotel Price":"191.71","hotel adress":{"street":"3 place Camille-Hostein","postalCode":"33270","city":"BOULIAC"},"Link for Reservation":["https://www.relaischateaux.com/us/france/cordeillan-gironde-pauillac"]},{"hotel Name ":"Anne de Bretagne","hotel Price":"81.76","hotel adress":{"street":"à Tinqueux, 40 av. Paul Vaillant-Couturier","postalCode":"51430","city":"Tinqueux"},"Link for Reservation":["https://www.relaischateaux.com/us/france/annedebretagne-loire-atlantique-la-plaine-sur-mer"]},{"hotel Name ":"Assiette Champenoise","hotel Price":"209.19","hotel adress":{"street":"80 chemin des Anglais","postalCode":"11000","city":"Carcassonne"},"Link for Reservation":["https://www.relaischateaux.com/us/france/assiette-champenoise-champagne-ardenne-tinqueux"]},{"hotel Name ":"Auberge des Templiers","hotel Price":"104.88","hotel adress":{"street":"1593 av. de Lyon","postalCode":"01960","city":"PERONNAS"},"Link for Reservation":["https://www.relaischateaux.com/us/france/templiers-loiret-boismorand"]},{"hotel Name ":"Château Cordeillan-Bages","hotel Price":"191.71","hotel adress":{"street":"D18","postalCode":"24240","city":"Monestier"},"Link for Reservation":["https://www.relaischateaux.com/us/france/cordeillan-gironde-pauillac"]},{"hotel Name ":"Anne de Bretagne","hotel Price":"81.76","hotel adress":{"street":"44 rue de l' eure","postalCode":"27340","city":"Les Damps"},"Link for Reservation":["https://www.relaischateaux.com/us/france/annedebretagne-loire-atlantique-la-plaine-sur-mer"]},{"hotel Name ":"Assiette Champenoise","hotel Price":"209.19","hotel adress":{"street":"4B Place Carnot","postalCode":"21200","city":"Beaune"},"Link for Reservation":["https://www.relaischateaux.com/us/france/assiette-champenoise-champagne-ardenne-tinqueux"]},{"hotel Name ":"Auberge des Templiers","hotel Price":"104.88","hotel adress":{"street":"10 Place du Président Wilson","postalCode":"21000","city":"Dijon"},"Link for Reservation":["https://www.relaischateaux.com/us/france/templiers-loiret-boismorand"]},{"hotel Name ":"Château Cordeillan-Bages","hotel Price":"191.71","hotel adress":{"street":"31, rue Maufoux","postalCode":"21200","city":"Beaune"},"Link for Reservation":["https://www.relaischateaux.com/us/france/cordeillan-gironde-pauillac"]},{"hotel Name ":"Anne de Bretagne","hotel Price":"81.76","hotel adress":{"street":"6 r. A. -Dumont","postalCode":"26400","city":"Crest"},"Link for Reservation":["https://www.relaischateaux.com/us/france/annedebretagne-loire-atlantique-la-plaine-sur-mer"]},{"hotel Name ":"Assiette Champenoise","hotel Price":"209.19","hotel adress":{"street":"7 Rue des Cigognes","postalCode":"68770","city":"Ammerschwihr"},"Link for Reservation":["https://www.relaischateaux.com/us/france/assiette-champenoise-champagne-ardenne-tinqueux"]},{"hotel Name ":"Auberge des Templiers","hotel Price":"104.88","hotel adress":{"street":"au Fornet","postalCode":"73150","city":"Val-d'Isère"},"Link for Reservation":["https://www.relaischateaux.com/us/france/templiers-loiret-boismorand"]},{"hotel Name ":"Château Cordeillan-Bages","hotel Price":"191.71","hotel adress":{"street":"25, boulevard Louis Lumière","postalCode":"83150","city":"Bandol"},"Link for Reservation":["https://www.relaischateaux.com/us/france/cordeillan-gironde-pauillac"]},{"hotel Name ":"Château de la Treyne","hotel Price":"281.93","hotel adress":{"street":"le bourg","postalCode":"69620","city":"Bagnols"},"Link for Reservation":["https://www.relaischateaux.com/us/france/treyne-lot-lacave"]},{"hotel Name ":"La Grande Maison de Bernard Magrez","hotel Price":"330.42","hotel adress":{"street":"228 Rue de Rivoli","postalCode":"75001","city":"Paris"},"Link for Reservation":["https://www.relaischateaux.com/us/france/grande-maison-bernard-magrez-gironde-bordeaux"]},{"hotel Name ":"La Grenouillère","hotel Price":"202.99","hotel adress":{"street":"10 rte du Languedoc","postalCode":"48130","city":"Aumont-Aubrac"},"Link for Reservation":["https://www.relaischateaux.com/us/france/lagrenouillere-pas-de-calais-la-madelaine-sous-montreuil"]},{"hotel Name ":"Le Vieux Logis","hotel Price":"191.71","hotel adress":{"street":"Carriera de la Teuliera","postalCode":"34360","city":"ASSIGNAN"},"Link for Reservation":["https://www.relaischateaux.com/us/france/vieuxlogis-dordogne-tremolat"]},{"hotel Name ":"Les Hautes Roches","hotel Price":"186.07","hotel adress":{"street":"quartier Helbarron","postalCode":"64310","city":"Saint-Pée-sur-Nivelle"},"Link for Reservation":["https://www.relaischateaux.com/us/france/hautesroches-indre-et-loire-rochecorbon"]},{"hotel Name ":"Villa René Lalique","hotel Price":-1,"hotel adress":{"street":"pl. du Marché","postalCode":"01540","city":"Vonnas"},"Link for Reservation":["https://www.relaischateaux.com/us/france/lalique-bas-rhin"]}]